CCSDS_OMM_VERS = 2.0
CREATION_DATE  = 
ORIGINATOR     = 

OBJECT_NAME    = STARLINK-36464
OBJECT_ID      = 2026-005AA
CENTER_NAME    = EARTH
REF_FRAME      = TEME
TIME_SYSTEM    = UTC
MEAN_ELEMENT_THEORY = SGP/SGP4

EPOCH          = 2026-01-24T12:00:00.998784
MEAN_MOTION    = 15.81542654
ECCENTRICITY   = .0001215
INCLINATION    = 43.0005
RA_OF_ASC_NODE = 133.8105
ARG_OF_PERICENTER = 288.6770
MEAN_ANOMALY   = 166.9074

EPHEMERIS_TYPE = 0
CLASSIFICATION_TYPE = U
NORAD_CAT_ID   = 67428
ELEMENT_SET_NO = 999
REV_AT_EPOCH   = 308
BSTAR          = -.9126E-2
MEAN_MOTION_DOT = -.1637218E-1
MEAN_MOTION_DDOT = 0

CCSDS_OMM_VERS = 2.0
CREATION_DATE  = 
ORIGINATOR     = 

OBJECT_NAME    = STARLINK-36513
OBJECT_ID      = 2026-005AB
CENTER_NAME    = EARTH
REF_FRAME      = TEME
TIME_SYSTEM    = UTC
MEAN_ELEMENT_THEORY = SGP/SGP4

EPOCH          = 2026-01-24T12:00:00.998784
MEAN_MOTION    = 15.81544739
ECCENTRICITY   = .000146
INCLINATION    = 43.0004
RA_OF_ASC_NODE = 133.8056
ARG_OF_PERICENTER = 279.0790
MEAN_ANOMALY   = 178.4690

EPHEMERIS_TYPE = 0
CLASSIFICATION_TYPE = U
NORAD_CAT_ID   = 67429
ELEMENT_SET_NO = 999
REV_AT_EPOCH   = 308
BSTAR          = -.91606E-2
MEAN_MOTION_DOT = -.1642947E-1
MEAN_MOTION_DDOT = 0

CCSDS_OMM_VERS = 2.0
CREATION_DATE  = 
ORIGINATOR     = 

OBJECT_NAME    = STARLINK-36515
OBJECT_ID      = 2026-005AC
CENTER_NAME    = EARTH
REF_FRAME      = TEME
TIME_SYSTEM    = UTC
MEAN_ELEMENT_THEORY = SGP/SGP4

EPOCH          = 2026-01-24T12:00:00.998784
MEAN_MOTION    = 15.81534744
ECCENTRICITY   = .0001289
INCLINATION    = 43.0002
RA_OF_ASC_NODE = 133.8157
ARG_OF_PERICENTER = 289.5058
MEAN_ANOMALY   = 164.1338

EPHEMERIS_TYPE = 0
CLASSIFICATION_TYPE = U
NORAD_CAT_ID   = 67430
ELEMENT_SET_NO = 999
REV_AT_EPOCH   = 300
BSTAR          = -.90893E-2
MEAN_MOTION_DOT = -.1631047E-1
MEAN_MOTION_DDOT = 0

CCSDS_OMM_VERS = 2.0
CREATION_DATE  = 
ORIGINATOR     = 

OBJECT_NAME    = STARLINK-36443
OBJECT_ID      = 2026-005AD
CENTER_NAME    = EARTH
REF_FRAME      = TEME
TIME_SYSTEM    = UTC
MEAN_ELEMENT_THEORY = SGP/SGP4

EPOCH          = 2026-01-24T12:00:00.998784
MEAN_MOTION    = 15.81514394
ECCENTRICITY   = .0001441
INCLINATION    = 43.0004
RA_OF_ASC_NODE = 133.7995
ARG_OF_PERICENTER = 284.5832
MEAN_ANOMALY   = 175.2490

EPHEMERIS_TYPE = 0
CLASSIFICATION_TYPE = U
NORAD_CAT_ID   = 67431
ELEMENT_SET_NO = 999
REV_AT_EPOCH   = 303
BSTAR          = -.92737E-2
MEAN_MOTION_DOT = -.1658421E-1
MEAN_MOTION_DDOT = 0

CCSDS_OMM_VERS = 2.0
CREATION_DATE  = 
ORIGINATOR     = 

OBJECT_NAME    = STARLINK-36460
OBJECT_ID      = 2026-005AE
CENTER_NAME    = EARTH
REF_FRAME      = TEME
TIME_SYSTEM    = UTC
MEAN_ELEMENT_THEORY = SGP/SGP4

EPOCH          = 2026-01-24T12:00:00.998784
MEAN_MOTION    = 15.81506778
ECCENTRICITY   = .000146
INCLINATION    = 43.0002
RA_OF_ASC_NODE = 133.7946
ARG_OF_PERICENTER = 282.0490
MEAN_ANOMALY   = 179.7583

EPHEMERIS_TYPE = 0
CLASSIFICATION_TYPE = U
NORAD_CAT_ID   = 67432
ELEMENT_SET_NO = 999
REV_AT_EPOCH   = 308
BSTAR          = -.92202E-2
MEAN_MOTION_DOT = -.1649642E-1
MEAN_MOTION_DDOT = 0

CCSDS_OMM_VERS = 2.0
CREATION_DATE  = 
ORIGINATOR     = 

OBJECT_NAME    = YAOGAN-50 01
OBJECT_ID      = 2026-006A
CENTER_NAME    = EARTH
REF_FRAME      = TEME
TIME_SYSTEM    = UTC
MEAN_ELEMENT_THEORY = SGP/SGP4

EPOCH          = 2026-01-24T12:17:23.229024
MEAN_MOTION    = 13.83250026
ECCENTRICITY   = .0000695
INCLINATION    = 142.0302
RA_OF_ASC_NODE = 241.4633
ARG_OF_PERICENTER = 273.4504
MEAN_ANOMALY   = 86.6136

EPHEMERIS_TYPE = 0
CLASSIFICATION_TYPE = U
NORAD_CAT_ID   = 67433
ELEMENT_SET_NO = 999
REV_AT_EPOCH   = 153
BSTAR          = .19086E-3
MEAN_MOTION_DOT = .399E-5
MEAN_MOTION_DDOT = 0

CCSDS_OMM_VERS = 2.0
CREATION_DATE  = 
ORIGINATOR     = 

OBJECT_NAME    = CZ-6A R/B
OBJECT_ID      = 2026-006B
CENTER_NAME    = EARTH
REF_FRAME      = TEME
TIME_SYSTEM    = UTC
MEAN_ELEMENT_THEORY = SGP/SGP4

EPOCH          = 2026-01-24T12:10:20.879040
MEAN_MOTION    = 14.62268732
ECCENTRICITY   = .0202297
INCLINATION    = 142.0432
RA_OF_ASC_NODE = 247.5590
ARG_OF_PERICENTER = 161.7628
MEAN_ANOMALY   = 199.0474

EPHEMERIS_TYPE = 0
CLASSIFICATION_TYPE = U
NORAD_CAT_ID   = 67434
ELEMENT_SET_NO = 999
REV_AT_EPOCH   = 160
BSTAR          = .21079E-3
MEAN_MOTION_DOT = .1779E-4
MEAN_MOTION_DDOT = 0

CCSDS_OMM_VERS = 2.0
CREATION_DATE  = 
ORIGINATOR     = 

OBJECT_NAME    = HULIANWANG DIGUI-137
OBJECT_ID      = 2026-007A
CENTER_NAME    = EARTH
REF_FRAME      = TEME
TIME_SYSTEM    = UTC
MEAN_ELEMENT_THEORY = SGP/SGP4

EPOCH          = 2026-01-23T19:29:56.315904
MEAN_MOTION    = 13.90235571
ECCENTRICITY   = .0007378
INCLINATION    = 50.0120
RA_OF_ASC_NODE = 253.8877
ARG_OF_PERICENTER = 322.7485
MEAN_ANOMALY   = 37.2901

EPHEMERIS_TYPE = 0
CLASSIFICATION_TYPE = U
NORAD_CAT_ID   = 67435
ELEMENT_SET_NO = 999
REV_AT_EPOCH   = 142
BSTAR          = .23122E-3
MEAN_MOTION_DOT = .142E-5
MEAN_MOTION_DDOT = 0

CCSDS_OMM_VERS = 2.0
CREATION_DATE  = 
ORIGINATOR     = 

OBJECT_NAME    = HULIANWANG DIGUI-138
OBJECT_ID      = 2026-007B
CENTER_NAME    = EARTH
REF_FRAME      = TEME
TIME_SYSTEM    = UTC
MEAN_ELEMENT_THEORY = SGP/SGP4

EPOCH          = 2026-01-23T21:15:47.564352
MEAN_MOTION    = 13.89396042
ECCENTRICITY   = .0002638
INCLINATION    = 50.0003
RA_OF_ASC_NODE = 253.6060
ARG_OF_PERICENTER = 289.5708
MEAN_ANOMALY   = 70.4905

EPHEMERIS_TYPE = 0
CLASSIFICATION_TYPE = U
NORAD_CAT_ID   = 67436
ELEMENT_SET_NO = 999
REV_AT_EPOCH   = 143
BSTAR          = .22629E-3
MEAN_MOTION_DOT = .132E-5
MEAN_MOTION_DDOT = 0

CCSDS_OMM_VERS = 2.0
CREATION_DATE  = 
ORIGINATOR     = 

OBJECT_NAME    = HULIANWANG DIGUI-139
OBJECT_ID      = 2026-007C
CENTER_NAME    = EARTH
REF_FRAME      = TEME
TIME_SYSTEM    = UTC
MEAN_ELEMENT_THEORY = SGP/SGP4

EPOCH          = 2026-01-23T22:58:15.168000
MEAN_MOTION    = 13.89556993
ECCENTRICITY   = .0004984
INCLINATION    = 50.0079
RA_OF_ASC_NODE = 253.3109
ARG_OF_PERICENTER = 293.0545
MEAN_ANOMALY   = 66.9828

EPHEMERIS_TYPE = 0
CLASSIFICATION_TYPE = U
NORAD_CAT_ID   = 67437
ELEMENT_SET_NO = 999
REV_AT_EPOCH   = 144
BSTAR          = .26978E-3
MEAN_MOTION_DOT = .186E-5
MEAN_MOTION_DDOT = 0

CCSDS_OMM_VERS = 2.0
CREATION_DATE  = 
ORIGINATOR     = 

OBJECT_NAME    = HULIANWANG DIGUI-140
OBJECT_ID      = 2026-007D
CENTER_NAME    = EARTH
REF_FRAME      = TEME
TIME_SYSTEM    = UTC
MEAN_ELEMENT_THEORY = SGP/SGP4

EPOCH          = 2026-01-24T00:44:43.264320
MEAN_MOTION    = 13.89011482
ECCENTRICITY   = .00075417
INCLINATION    = 50.0156
RA_OF_ASC_NODE = 253.0451
ARG_OF_PERICENTER = 293.0387
MEAN_ANOMALY   = 66.9716

EPHEMERIS_TYPE = 0
CLASSIFICATION_TYPE = U
NORAD_CAT_ID   = 67438
ELEMENT_SET_NO = 999
REV_AT_EPOCH   = 145
BSTAR          = .25861121E-3
MEAN_MOTION_DOT = .169E-5
MEAN_MOTION_DDOT = 0

CCSDS_OMM_VERS = 2.0
CREATION_DATE  = 
ORIGINATOR     = 

OBJECT_NAME    = HULIANWANG DIGUI-141
OBJECT_ID      = 2026-007E
CENTER_NAME    = EARTH
REF_FRAME      = TEME
TIME_SYSTEM    = UTC
MEAN_ELEMENT_THEORY = SGP/SGP4

EPOCH          = 2026-01-23T21:12:10.110240
MEAN_MOTION    = 13.90231334
ECCENTRICITY   = .0002358
INCLINATION    = 49.9973
RA_OF_ASC_NODE = 253.5966
ARG_OF_PERICENTER = 307.5973
MEAN_ANOMALY   = 52.4711

EPHEMERIS_TYPE = 0
CLASSIFICATION_TYPE = U
NORAD_CAT_ID   = 67439
ELEMENT_SET_NO = 999
REV_AT_EPOCH   = 143
BSTAR          = .23542E-3
MEAN_MOTION_DOT = .147E-5
MEAN_MOTION_DDOT = 0

