STARLINK-36464          
1 67428U 26005AA  26024.50001156 -.01637218  00000+0 -91260-2 0  9991
2 67428  43.0005 133.8105 0001215 288.6770 166.9074 15.81542654  3084
STARLINK-36513          
1 67429U 26005AB  26024.50001156 -.01642947  00000+0 -91606-2 0  9991
2 67429  43.0004 133.8056 0001460 279.0790 178.4690 15.81544739  3085
STARLINK-36515          
1 67430U 26005AC  26024.50001156 -.01631047  00000+0 -90893-2 0  9999
2 67430  43.0002 133.8157 0001289 289.5058 164.1338 15.81534744  3007
STARLINK-36443          
1 67431U 26005AD  26024.50001156 -.01658421  00000+0 -92737-2 0  9994
2 67431  43.0004 133.7995 0001441 284.5832 175.2490 15.81514394  3038
STARLINK-36460          
1 67432U 26005AE  26024.50001156 -.01649642  00000+0 -92202-2 0  9997
2 67432  43.0002 133.7946 0001460 282.0490 179.7583 15.81506778  3081
YAOGAN-50 01            
1 67433U 26006A   26024.51207441  .00000399  00000+0  19086-3 0  9992
2 67433 142.0302 241.4633 0000695 273.4504  86.6136 13.83250026  1534
CZ-6A R/B               
1 67434U 26006B   26024.50718610  .00001779  00000+0  21079-3 0  9995
2 67434 142.0432 247.5590 0202297 161.7628 199.0474 14.62268732  1609
HULIANWANG DIGUI-137    
1 67435U 26007A   26023.81245736  .00000142  00000+0  23122-3 0  9998
2 67435  50.0120 253.8877 0007378 322.7485  37.2901 13.90235571  1426
HULIANWANG DIGUI-138    
1 67436U 26007B   26023.88596718  .00000132  00000+0  22629-3 0  9995
2 67436  50.0003 253.6060 0002638 289.5708  70.4905 13.89396042  1434
HULIANWANG DIGUI-139    
1 67437U 26007C   26023.95712000  .00000186  00000+0  26978-3 0  9998
2 67437  50.0079 253.3109 0004984 293.0545  66.9828 13.89556993  1442
HULIANWANG DIGUI-140    
1 67438U 26007D   26024.03105630  .00000169  00000+0  25861-3 0  9995
2 67438  50.0156 253.0451 0007541 293.0387  66.9716 13.89011482  1458
HULIANWANG DIGUI-141    
1 67439U 26007E   26023.88345035  .00000147  00000+0  23542-3 0  9993
2 67439  49.9973 253.5966 0002358 307.5973  52.4711 13.90231334  1437
